{"type": "FeatureCollection", "features": [ {"type": "Feature", "properties": {"norad_id": 31660, "name": "FENGYUN 1C DEB", "group": "fengyun-1c-debris", "lat": 24.18271481598587, "lon": 163.59122561773302, "alt_km": 754.605517084864, "timestamp": "2025-12-04T03:47:54.826614+00:00", "meta": {"OBJECT_NAME": "FENGYUN 1C DEB", "OBJECT_ID": "1999-025CBS", "EPOCH": "2025-11-21T18:54:02.073600", "MEAN_MOTION": 14.27033891, "ECCENTRICITY": 0.01009939, "INCLINATION": 98.5056, "RA_OF_ASC_NODE": 327.7074, "ARG_OF_PERICENTER": 242.467, "MEAN_ANOMALY": 116.6221, "EPHEMERIS_TYPE": 0, "CLASSIFICATION_TYPE": "U", "NORAD_CAT_ID": 31660, "ELEMENT_SET_NO": 999, "REV_AT_EPOCH": 7617, "BSTAR": 0.00068848685, "MEAN_MOTION_DOT": 1.726e-05, "MEAN_MOTION_DDOT": 0}, "tle": {"line1": "1 31660U 99025CBS 25325.78752400  .00001726  00000+0  68849-3 0  9994", "line2": "2 31660  98.5056 327.7074 0100993 242.4670 116.6221 14.27033891 76176"}}, "geometry": {"type": "Point", "coordinates": [163.59122561773302, 24.18271481598587]}}, {"type": "Feature", "properties": {"norad_id": 31661, "name": "FENGYUN 1C DEB", "group": "fengyun-1c-debris", "lat": -80.93521151884507, "lon": 135.05726990602636, "alt_km": 776.6049211952923, "timestamp": "2025-12-04T03:47:54.826624+00:00", "meta": {"OBJECT_NAME": "FENGYUN 1C DEB", "OBJECT_ID": "1999-025CBT", "EPOCH": "2025-12-03T04:45:10.658592", "MEAN_MOTION": 14.25303801, "ECCENTRICITY": 0.00579002, "INCLINATION": 98.8612, "RA_OF_ASC_NODE": 56.183, "ARG_OF_PERICENTER": 251.0244, "MEAN_ANOMALY": 136.3178, "EPHEMERIS_TYPE": 0, "CLASSIFICATION_TYPE": "U", "NORAD_CAT_ID": 31661, "ELEMENT_SET_NO": 999, "REV_AT_EPOCH": 95577, "BSTAR": 0.0023828369, "MEAN_MOTION_DOT": 5.667e-05, "MEAN_MOTION_DDOT": 0}, "tle": {"line1": "1 31661U 99025CBT 25337.19804003  .00005667  00000+0  23828-2 0  9995", "line2": "2 31661  98.8612  56.1830 0057900 251.0244 136.3178 14.25303801955774"}}, "geometry": {"type": "Point", "coordinates": [135.05726990602636, -80.93521151884507]}}, {"type": "Feature", "properties": {"norad_id": 31663, "name": "FENGYUN 1C DEB", "group": "fengyun-1c-debris", "lat": -23.919680419362546, "lon": -110.82503799535442, "alt_km": 601.435520643452, "timestamp": "2025-12-04T03:47:54.826634+00:00", "meta": {"OBJECT_NAME": "FENGYUN 1C DEB", "OBJECT_ID": "1999-025CBV", "EPOCH": "2025-12-03T11:38:28.212000", "MEAN_MOTION": 14.76310711, "ECCENTRICITY": 0.0189768, "INCLINATION": 98.838, "RA_OF_ASC_NODE": 244.4812, "ARG_OF_PERICENTER": 266.7407, "MEAN_ANOMALY": 91.2075, "EPHEMERIS_TYPE": 0, "CLASSIFICATION_TYPE": "U", "NORAD_CAT_ID": 31663, "ELEMENT_SET_NO": 999, "REV_AT_EPOCH": 99143, "BSTAR": 0.0005527, "MEAN_MOTION_DOT": 5.081e-05, "MEAN_MOTION_DDOT": 0}, "tle": {"line1": "1 31663U 99025CBV 25337.48504875  .00005081  00000+0  55270-3 0  9990", "line2": "2 31663  98.8380 244.4812 0189768 266.7407  91.2075 14.76310711991434"}}, "geometry": {"type": "Point", "coordinates": [-110.82503799535442, -23.919680419362546]}}, {"type": "Feature", "properties": {"norad_id": 31664, "name": "FENGYUN 1C DEB", "group": "fengyun-1c-debris", "lat": 34.26064318252618, "lon": -36.12323375069707, "alt_km": 931.855900069254, "timestamp": "2025-12-04T03:47:54.826644+00:00", "meta": {"OBJECT_NAME": "FENGYUN 1C DEB", "OBJECT_ID": "1999-025CBW", "EPOCH": "2025-12-03T10:36:10.390752", "MEAN_MOTION": 14.10277836, "ECCENTRICITY": 0.0124416, "INCLINATION": 98.7516, "RA_OF_ASC_NODE": 329.2022, "ARG_OF_PERICENTER": 184.4459, "MEAN_ANOMALY": 175.5617, "EPHEMERIS_TYPE": 0, "CLASSIFICATION_TYPE": "U", "NORAD_CAT_ID": 31664, "ELEMENT_SET_NO": 999, "REV_AT_EPOCH": 95870, "BSTAR": 0.00040065, "MEAN_MOTION_DOT": 7.21e-06, "MEAN_MOTION_DDOT": 0}, "tle": {"line1": "1 31664U 99025CBW 25337.44178693  .00000721  00000+0  40065-3 0  9994", "line2": "2 31664  98.7516 329.2022 0124416 184.4459 175.5617 14.10277836958701"}}, "geometry": {"type": "Point", "coordinates": [-36.12323375069707, 34.26064318252618]}}, {"type": "Feature", "properties": {"norad_id": 31665, "name": "FENGYUN 1C DEB", "group": "fengyun-1c-debris", "lat": 53.66197143115444, "lon": -146.37578437344504, "alt_km": 927.1417195385657, "timestamp": "2025-12-04T03:47:54.826654+00:00", "meta": {"OBJECT_NAME": "FENGYUN 1C DEB", "OBJECT_ID": "1999-025CBX", "EPOCH": "2025-11-29T13:55:45.257088", "MEAN_MOTION": 13.84758836, "ECCENTRICITY": 0.01900248, "INCLINATION": 98.4512, "RA_OF_ASC_NODE": 17.8375, "ARG_OF_PERICENTER": 222.9369, "MEAN_ANOMALY": 135.6823, "EPHEMERIS_TYPE": 0, "CLASSIFICATION_TYPE": "U", "NORAD_CAT_ID": 31665, "ELEMENT_SET_NO": 999, "REV_AT_EPOCH": 93009, "BSTAR": 0.0012069056, "MEAN_MOTION_DOT": 1.525e-05, "MEAN_MOTION_DDOT": 0}, "tle": {"line1": "1 31665U 99025CBX 25333.58038492  .00001525  00000+0  12069-2 0  9993", "line2": "2 31665  98.4512  17.8375 0190024 222.9369 135.6823 13.84758836930094"}}, "geometry": {"type": "Point", "coordinates": [-146.37578437344504, 53.66197143115444]}}, {"type": "Feature", "properties": {"norad_id": 31666, "name": "FENGYUN 1C DEB", "group": "fengyun-1c-debris", "lat": 31.239787134990202, "lon": 120.81760918862089, "alt_km": 634.1339101189251, "timestamp": "2025-12-04T03:47:54.826664+00:00", "meta": {"OBJECT_NAME": "FENGYUN 1C DEB", "OBJECT_ID": "1999-025CBY", "EPOCH": "2025-12-01T09:15:11.992608", "MEAN_MOTION": 14.82644549, "ECCENTRICITY": 0.00263225, "INCLINATION": 98.6562, "RA_OF_ASC_NODE": 123.1201, "ARG_OF_PERICENTER": 188.8412, "MEAN_ANOMALY": 171.2339, "EPHEMERIS_TYPE": 0, "CLASSIFICATION_TYPE": "U", "NORAD_CAT_ID": 31666, "ELEMENT_SET_NO": 999, "REV_AT_EPOCH": 97103, "BSTAR": 0.0054771362, "MEAN_MOTION_DOT": 0.0004461, "MEAN_MOTION_DDOT": 0}, "tle": {"line1": "1 31666U 99025CBY 25335.38555547  .00044610  00000+0  54771-2 0  9997", "line2": "2 31666  98.6562 123.1201 0026322 188.8412 171.2339 14.82644549971030"}}, "geometry": {"type": "Point", "coordinates": [120.81760918862089, 31.239787134990202]}}, {"type": "Feature", "properties": {"norad_id": 31667, "name": "FENGYUN 1C DEB", "group": "fengyun-1c-debris", "lat": -11.030933316952781, "lon": 8.090025925190805, "alt_km": 810.8079491742692, "timestamp": "2025-12-04T03:47:54.826674+00:00", "meta": {"OBJECT_NAME": "FENGYUN 1C DEB", "OBJECT_ID": "1999-025CBZ", "EPOCH": "2025-12-03T10:02:22.671744", "MEAN_MOTION": 14.2348358, "ECCENTRICITY": 0.0051604, "INCLINATION": 99.0856, "RA_OF_ASC_NODE": 189.1139, "ARG_OF_PERICENTER": 113.7693, "MEAN_ANOMALY": 246.8908, "EPHEMERIS_TYPE": 0, "CLASSIFICATION_TYPE": "U", "NORAD_CAT_ID": 31667, "ELEMENT_SET_NO": 999, "REV_AT_EPOCH": 55860, "BSTAR": 0.00035711, "MEAN_MOTION_DOT": 7.76e-06, "MEAN_MOTION_DDOT": 0}, "tle": {"line1": "1 31667U 99025CBZ 25337.41831796  .00000776  00000+0  35711-3 0  9996", "line2": "2 31667  99.0856 189.1139 0051604 113.7693 246.8908 14.23483580558609"}}, "geometry": {"type": "Point", "coordinates": [8.090025925190805, -11.030933316952781]}}, {"type": "Feature", "properties": {"norad_id": 31672, "name": "FENGYUN 1C DEB", "group": "fengyun-1c-debris", "lat": 36.16331799633308, "lon": -8.174357133881678, "alt_km": 775.3135302068631, "timestamp": "2025-12-04T03:47:54.826684+00:00", "meta": {"OBJECT_NAME": "FENGYUN 1C DEB", "OBJECT_ID": "1999-025CCE", "EPOCH": "2025-12-03T05:37:36.272640", "MEAN_MOTION": 14.50722016, "ECCENTRICITY": 0.0108218, "INCLINATION": 98.9573, "RA_OF_ASC_NODE": 164.223, "ARG_OF_PERICENTER": 10.2835, "MEAN_ANOMALY": 350.0536, "EPHEMERIS_TYPE": 0, "CLASSIFICATION_TYPE": "U", "NORAD_CAT_ID": 31672, "ELEMENT_SET_NO": 999, "REV_AT_EPOCH": 64733, "BSTAR": 0.001939, "MEAN_MOTION_DOT": 8.176e-05, "MEAN_MOTION_DDOT": 0}, "tle": {"line1": "1 31672U 99025CCE 25337.23444760  .00008176  00000+0  19390-2 0  9999", "line2": "2 31672  98.9573 164.2230 0108218  10.2835 350.0536 14.50722016647332"}}, "geometry": {"type": "Point", "coordinates": [-8.174357133881678, 36.16331799633308]}}, {"type": "Feature", "properties": {"norad_id": 31673, "name": "FENGYUN 1C DEB", "group": "fengyun-1c-debris", "lat": -5.047774591218186, "lon": 172.77706248258528, "alt_km": 769.826965055563, "timestamp": "2025-12-04T03:47:54.826694+00:00", "meta": {"OBJECT_NAME": "FENGYUN 1C DEB", "OBJECT_ID": "1999-025CCF", "EPOCH": "2025-12-01T12:05:46.557312", "MEAN_MOTION": 14.31920513, "ECCENTRICITY": 0.01258857, "INCLINATION": 99.374, "RA_OF_ASC_NODE": 169.0754, "ARG_OF_PERICENTER": 81.1692, "MEAN_ANOMALY": 280.3719, "EPHEMERIS_TYPE": 0, "CLASSIFICATION_TYPE": "U", "NORAD_CAT_ID": 31673, "ELEMENT_SET_NO": 999, "REV_AT_EPOCH": 64730, "BSTAR": 0.00025702529, "MEAN_MOTION_DOT": 7e-06, "MEAN_MOTION_DDOT": 0}, "tle": {"line1": "1 31673U 99025CCF 25335.50401108  .00000700  00000+0  25703-3 0  9998", "line2": "2 31673  99.3740 169.0754 0125885  81.1692 280.3719 14.31920513647301"}}, "geometry": {"type": "Point", "coordinates": [172.77706248258528, -5.047774591218186]}}, {"type": "Feature", "properties": {"norad_id": 31674, "name": "FENGYUN 1C DEB", "group": "fengyun-1c-debris", "lat": -52.70986364834252, "lon": -177.974267547809, "alt_km": 724.357472906674, "timestamp": "2025-12-04T03:47:54.826705+00:00", "meta": {"OBJECT_NAME": "FENGYUN 1C DEB", "OBJECT_ID": "1999-025CCG", "EPOCH": "2025-11-28T07:44:59.944992", "MEAN_MOTION": 14.51401416, "ECCENTRICITY": 0.00238859, "INCLINATION": 98.9271, "RA_OF_ASC_NODE": 7.7446, "ARG_OF_PERICENTER": 330.337, "MEAN_ANOMALY": 29.6468, "EPHEMERIS_TYPE": 0, "CLASSIFICATION_TYPE": "U", "NORAD_CAT_ID": 31674, "ELEMENT_SET_NO": 999, "REV_AT_EPOCH": 64405, "BSTAR": 0.0028928695, "MEAN_MOTION_DOT": 0.00011549, "MEAN_MOTION_DDOT": 0}, "tle": {"line1": "1 31674U 99025CCG 25332.32291603  .00011549  00000+0  28929-2 0  9998", "line2": "2 31674  98.9271   7.7446 0023885 330.3370  29.6468 14.51401416644053"}}, "geometry": {"type": "Point", "coordinates": [-177.974267547809, -52.70986364834252]}}]}